GLOBALSTAR M067         
1 32263U 07048A   25048.64091106 -.00000095  00000+0  14970-4 0  9990
2 32263  51.9749  25.7323 0001209  85.6047  86.1911 12.40666002794640
GLOBALSTAR M070         
1 32264U 07048B   25048.58902214 -.00000056  00000+0  26642-3 0  9990
2 32264  51.9745 132.8473 0000716 136.6846   1.5982 12.62312088798569
GLOBALSTAR M066         
1 32265U 07048C   25048.64121748 -.00000078  00000+0  14097-3 0  9998
2 32265  51.9696  11.8206 0000418  52.5648 126.5276 12.42170777800529
GLOBALSTAR M079         
1 37188U 10054A   25048.51950132 -.00000070  00000+0  18770-3 0  9995
2 37188  52.0034 144.0749 0000800  92.7964 280.6632 12.62270882661342
GLOBALSTAR M074         
1 37189U 10054B   25048.56567104 -.00000046  00000+0  32332-3 0  9997
2 37189  52.0011 143.2761 0000885 118.7778 343.8440 12.62266305661959
GLOBALSTAR M076         
1 37190U 10054C   25048.59261992 -.00000073  00000+0  17274-3 0  9996
2 37190  52.0024 143.3509 0001070 103.7220   3.5610 12.62277705662034
GLOBALSTAR M077         
1 37191U 10054D   25048.59062878 -.00000081  00000+0  12914-3 0  9994
2 37191  52.0067 100.1824 0000558 119.7538  36.4800 12.62271029662042
